1 46814U 20077B   20303.00052662 -.00000067  00000-0  00000+0 0  9991
2 46814  97.5026   3.4467 0010589 331.5432 117.2430 15.15657627    16
1 46814U 20077B   20303.24834458  .00001836  00000-0  10000-3 0  9997
2 46814  97.4982   3.6913 0011373 330.6916  29.3920 15.15627404    54
1 46814U 20077B   20303.57844880  .00001835  00000-0  10000-3 0  9992
2 46814  97.4988   4.0186 0011648 329.9649  30.0931 15.15620962   105
1 46814U 20077B   20303.90855578  .00001835  00000-0  10000-3 0  9995
2 46814  97.5028   4.3466 0011861 328.7032  31.3483 15.15611525   151
1 46814U 20077B   20303.97457732  .00008648  00000-0  45751-3 0  9992
2 46814  97.5025   4.4143 0012409 328.7982  31.2555 15.15628508   163
1 46814U 20077B   20304.23865927  .00010948  00000-0  57793-3 0  9996
2 46814  97.5019   4.6754 0012441 327.6477  32.3983 15.15636814   200
1 46814U 20077B   20304.76682943  .00002649  00000-0  14268-3 0  9998
2 46814  97.5021   5.1975 0012340 325.4949  34.5477 15.15629573   286
1 46814U 20077B   20304.93086589  .00002898  00000-0  15579-3 0  9993
2 46814  97.5022   5.3595 0012448 325.0512 209.4459 15.15629572   303
1 46814U 20077B   20305.11250714  .00002936  00000-0  15778-3 0  9991
2 46814  97.5021   5.5390 0012428 324.0941 120.8582 15.15630861   339
1 46814U 20077B   20305.43904262  .00002775  00000-0  14930-3 0  9990
2 46814  97.5020   5.8619 0012460 323.2103 102.2764 15.15632331   387
1 46814U 20077B   20305.58375237  .00002691  00000-0  14489-3 0  9996
2 46814  97.5020   6.0048 0012473 322.6574 171.9038 15.15632888   402
1 46814U 20077B   20305.78003204  .00001774  00000-0  96733-4 0  9994
2 46814  97.5017   6.1984 0012459 321.4575 163.3721 15.15630708   436
1 46814U 20077B   20305.91039667  .00001440  00000-0  79191-4 0  9990
2 46814  97.5017   6.3272 0012455 320.9224 154.7571 15.15629993   452
1 46814U 20077B   20306.09913632  .00001689  00000-0  92242-4 0  9990
2 46814  97.5017   6.5135 0012319 319.9391 104.9043 15.15631363   482
1 46814U 20077B   20306.50465657  .00001448  00000-0  79583-4 0  9991
2 46814  97.5017   6.9144 0012451 318.7698 157.2948 15.15631859   542
1 46814U 20077B   20306.83394027  .00001043  00000-0  58345-4 0  9993
2 46814  97.5016   7.2399 0012463 317.2763 154.3039 15.15630981   596
1 46814U 20077B   20307.02893884  .00000947  00000-0  53259-4 0  9991
2 46814  97.5014   7.4324 0012435 316.5340 138.3343 15.15630924   627
1 46814U 20077B   20307.43109949  .00000820  00000-0  46627-4 0  9999
2 46814  97.5012   7.8303 0012541 315.0751 172.6959 15.15631208   680
1 46814U 20077B   20307.63408914  .00000815  00000-0  46366-4 0  9999
2 46814  97.5012   8.0307 0012540 314.3638 200.2707 15.15631541   715
1 46814U 20077B   20307.76323735  .00000682  00000-0  39374-4 0  9993
2 46814  97.5011   8.1585 0012574 313.7909 185.0613 15.15631067   735
1 46814U 20077B   20307.96854655  .00000560  00000-0  32944-4 0  9996
2 46814  97.5010   8.3611 0012552 312.9059 225.4547 15.15630636   768
1 46814U 20077B   20308.08510154  .00000608  00000-0  35451-4 0  9992
2 46814  97.5008   8.4758 0012554 312.5066 141.4069 15.15631067   781
1 46814U 20077B   20308.28167515  .00000653  00000-0  37837-4 0  9993
2 46814  97.5006   8.6699 0012559 311.7257 134.0676 15.15631635   810
1 46814U 20077B   20308.42182550  .00000649  00000-0  37643-4 0  9995
2 46814  97.5007   8.8084 0012571 311.2482 178.7580 15.15631810   836
1 46814U 20077B   20308.88394148  .00000559  00000-0  32892-4 0  9994
2 46814  97.5008   9.2648 0012585 309.5924 180.2417 15.15631852   905
1 46814U 20077B   20309.20597014  .00000644  00000-0  37380-4 0  9990
2 46814  97.5007   9.5829 0012572 308.1300 137.6697 15.15632904   957
1 46814U 20077B   20309.54649565  .00000663  00000-0  38353-4 0  9998
2 46814  97.5007   9.9191 0012573 306.9865 195.6365 15.15633535  1000
1 46814U 20077B   20309.87185024  .00000670  00000-0  38698-4 0  9999
2 46814  97.5008  10.2405 0012578 305.8818 170.8405 15.15634064  1058
1 46814U 20077B   20310.19610106  .00000718  00000-0  41220-4 0  9998
2 46814  97.5007  10.5606 0012598 304.7103 140.0957 15.15634963  1105
1 46814U 20077B   20310.40221212  .00000740  00000-0  42408-4 0  9992
2 46814  97.5007  10.7640 0012598 304.0028 184.6914 15.15635483  1132
1 46814U 20077B   20310.53028074  .00000764  00000-0  43639-4 0  9990
2 46814  97.5007  10.8903 0012579 303.3733 163.6582 15.15635901  1154
1 46814U 20077B   20310.73025337  .00000766  00000-0  43746-4 0  9992
2 46814  97.5005  11.0881 0012623 302.6969 174.7511 15.15636315  1181
1 46814U 20077B   20310.86276414  .00000760  00000-0  43446-4 0  9991
2 46814  97.5006  11.2189 0012612 302.2116 177.7946 15.15636495  1200
1 46814U 20077B   20311.18630874  .00000812  00000-0  46185-4 0  9992
2 46814  97.5005  11.5384 0012497 300.4874 143.7566 15.15637498  1251
1 46814U 20077B   20311.52054110  .00000876  00000-0  49527-4 0  9996
2 46814  97.5002  11.8682 0012564 299.2654 167.4940 15.15638617  1307
1 46814U 20077B   20311.85525485  .00000927  00000-0  52201-4 0  9990
2 46814  97.5002  12.1987 0012458 297.9573 193.9433 15.15639578  1359
1 46814U 20077B   20312.23508987  .00000949  00000-0  53362-4 0  9994
2 46814  97.5002  12.5739 0012456 296.4683 106.6134 15.15640549  1418
1 46814U 20077B   20312.51113324  .00001020  00000-0  57111-4 0  9999
2 46814  97.5000  12.8463 0012504 295.6037 172.7016 15.15641665  1458
1 46814U 20077B   20312.90313020  .00001104  00000-0  61515-4 0  9993
2 46814  97.5000  13.2331 0012448 294.2667 151.5419 15.15643175  1515
1 46814U 20077B   20316.12236857  .00003139  00000+0  16824-3 0  9994
2 46814  97.4999  16.4116 0012428 281.4436  78.5400 15.15665668  2001
1 46814U 20077B   20316.78256349  .00002971  00000+0  15942-3 0  9997
2 46814  97.4999  17.0634 0012427 278.8683  81.1142 15.15668875  2103
1 46814U 20077B   20317.44275592  .00003047  00000+0  16338-3 0  9997
2 46814  97.4998  17.7152 0012442 276.2991  83.6824 15.15673457  2202
1 46814U 20077B   20317.86091686  .00002594  00000-0  13963-3 0  9991
2 46814  97.4996  18.1279 0012369 276.1532 204.0326 15.15673268  2265
1 46814U 20077B   20318.58455360  .00002855  00000-0  15330-3 0  9994
2 46814  97.4993  18.8425 0012490 272.9861 193.1798 15.15679370  2379
1 46814U 20077B   20318.91435730  .00002893  00000-0  15526-3 0  9999
2 46814  97.4993  19.1673 0012298 271.0349 193.5480 15.15681512  2424
1 46814U 20077B   20319.57554323  .00003012  00000-0  16151-3 0  9991
2 46814  97.4990  19.8206 0012361 268.6296 201.4023 15.15686368  2521
1 46814U 20077B   20319.91734341  .00002970  00000-0  15927-3 0  9991
2 46814  97.4990  20.1577 0012349 266.8557 267.0146 15.15688076  2570
1 46814U 20077B   20320.56542010  .00003059  00000-0  16395-3 0  9993
2 46814  97.4992  20.7984 0012372 263.8531 203.9955 15.15692518  2679
1 46814U 20077B   20320.89683736  .00002838  00000-0  15237-3 0  9998
2 46814  97.4993  21.1255 0012328 261.8528 213.2200 15.15693194  2725
1 46814U 20077B   20321.55533422  .00002844  00000-0  15264-3 0  9995
2 46814  97.4992  21.7758 0012342 259.5625 206.3184 15.15697064  2821
1 46814U 20077B   20321.88761563  .00002720  00000-0  14617-3 0  9994
2 46814  97.4990  22.1036 0012331 258.2931 219.5289 15.15698053  2873
1 46814U 20077B   20322.54591512  .00002700  00000-0  14509-3 0  9991
2 46814  97.4988  22.7535 0012339 256.1064 211.4572 15.15701554  2970
1 46814U 20077B   20322.87658851  .00002679  00000-0  14394-3 0  9994
2 46814  97.4989  23.0799 0012341 254.9411 215.8037 15.15703144  3020
1 46814U 20077B   20323.20195918  .00002689  00000-0  14446-3 0  9991
2 46814  97.4987  23.4010 0012357 253.7035 191.3116 15.15705075  3070
1 46814U 20077B   20323.53663941  .00002687  00000-0  14438-3 0  9992
2 46814  97.4987  23.7316 0012376 252.4141 217.6390 15.15706967  3120
1 46814U 20077B   20323.86730958  .00002642  00000-0  14201-3 0  9990
2 46814  97.4986  24.0580 0012368 251.4027 221.8208 15.15708493  3175
1 46814U 20077B   20324.19240101  .00002697  00000-0  14486-3 0  9998
2 46814  97.4983  24.3783 0012396 250.8996 195.0786 15.15710797  3228
1 46814U 20077B   20324.38575409  .00002694  00000-0  14471-3 0  9992
2 46814  97.4982  24.5690 0012404 250.2130 170.1383 15.15711874  3257
1 46814U 20077B   20324.72579597  .00002764  00000-0  14836-3 0  9995
2 46814  97.4980  24.9047 0012410 249.0839 225.5532 15.15714303  3301
1 46814U 20077B   20324.85931382  .00002742  00000-0  14721-3 0  9992
2 46814  97.4981  25.0366 0012401 248.6239 234.0994 15.15714888  3324
1 46814U 20077B   20325.18251137  .00002777  00000-0  14904-3 0  9993
2 46814  97.4981  25.3556 0012398 247.1164 198.0422 15.15717031  3377
1 46814U 20077B   20325.51689340  .00002849  00000-0  15283-3 0  9992
2 46814  97.4979  25.6855 0012391 246.0446 222.5417 15.15719467  3421
1 46814U 20077B   20325.85160315  .00002866  00000-0  15371-3 0  9992
2 46814  97.4978  26.0160 0012396 244.8175 248.9845 15.15721526  3475
1 46814U 20077B   20326.17269086  .00002893  00000-0  15509-3 0  9996
2 46814  97.4978  26.3334 0012457 242.3989 202.3420 15.15723605  3524
1 46814U 20077B   20326.50707803  .00002952  00000-0  15818-3 0  9996
2 46814  97.4978  26.6637 0012426 241.4107 226.7927 15.15726000  3570
1 46814U 20077B   20326.89338128  .00002947  00000-0  15787-3 0  9997
2 46814  97.4976  27.0447 0012483 239.7684 175.0049 15.15728216  3634
1 46814U 20077B   20327.22896378  .00002959  00000-0  15850-3 0  9995
2 46814  97.4975  27.3759 0012548 238.3454 206.4143 15.15730353  3688
1 46814U 20077B   20327.44543981  .00002975  00000-0  15936-3 0  9991
2 46814  97.4976  27.5901 0012521 237.4726 307.7676 15.15731777  3714
1 46814U 20077B   20327.63773087  .00002997  00000-0  16051-3 0  9997
2 46814  97.4974  27.7798 0012516 236.8096 277.0270 15.15733075  3740
1 46814U 20077B   20327.76734690  .00002966  00000-0  15886-3 0  9999
2 46814  97.4972  27.9075 0012549 236.3364 264.3174 15.15733598  3761
1 46814U 20077B   20327.96243145  .00002953  00000-0  15818-3 0  9992
2 46814  97.4972  28.1001 0012569 235.4586 249.0257 15.15734675  3793
